SL-14 R/B               
1 16792U 86046B   26041.66303955  .00000480  00000+0  52536-4 0  9995
2 16792  82.4812 105.7230 0022066 320.3277  39.6323 14.85564100122397
SL-14 R/B               
1 16882U 86055B   26041.87622015  .00000600  00000+0  66296-4 0  9991
2 16882  82.5233 151.8686 0020228  63.1957  76.2409 14.85614764115382
AJISAI (EGS)            
1 16908U 86061A   26041.98132243 -.00000091  00000+0  47900-4 0  9994
2 16908  50.0077 175.4754 0011239 218.1807 247.2033 12.44515376464677
COSMOS 1812             
1 17295U 87003A   26041.93457403  .00299679  34178-4  71909-3 0  9998
2 17295  82.4763 226.0069 0001740 311.6426  48.4701 15.96460526140188
SL-14 R/B               
1 17567U 87024B   26041.63897016  .00000496  00000+0  53671-4 0  9994
2 17567  82.5289 118.1885 0018004 355.2951   4.8093 14.86106208 84111
COSMOS 1833             
1 17589U 87027A   26041.96025843  .00000029  00000+0  41298-4 0  9992
2 17589  70.9217  22.1933 0024907 250.4053 109.4379 14.13056894  6548
SL-16 R/B               
1 17590U 87027B   26041.94075031 -.00000186  00000+0 -68614-4 0  9993
2 17590  71.0049 332.8604 0004963 189.7273 170.3755 14.17163050 11558
SL-14 R/B               
1 17912U 87038B   26041.82209508  .00000545  00000+0  60486-4 0  9994
2 17912  82.5040 322.1123 0017705 252.3872 107.5411 14.85342949 75240
COSMOS 1844             
1 17973U 87041A   26041.52872926  .00000426  00000+0  24582-3 0  9996
2 17973  70.8980  91.4684 0028890  61.4283 298.9740 14.14542294999747
SL-14 R/B               
1 18153U 87055B   26041.93843022  .00000632  00000+0  69891-4 0  9994
2 18153  82.4999  14.2392 0022287 101.0786 259.2938 14.85595839 65967
COSMOS 1867             
1 18187U 87060A   26041.33494349 -.00000020  00000+0  30035-4 0  9995
2 18187  65.0113  23.3084 0014119 276.6645  83.2833 14.31498574 16027
SL-14 R/B               
1 18749U 88001B   26041.93188283  .00000552  00000+0  61090-4 0  9992
2 18749  82.5109 220.5273 0017304 331.2298  28.7962 14.85495162 38055
