CCSDS_OMM_VERS = 2.0
CREATION_DATE  = 
ORIGINATOR     = 

OBJECT_NAME    = SL-14 R/B
OBJECT_ID      = 1986-046B
CENTER_NAME    = EARTH
REF_FRAME      = TEME
TIME_SYSTEM    = UTC
MEAN_ELEMENT_THEORY = SGP/SGP4

EPOCH          = 2026-02-10T15:54:46.617120
MEAN_MOTION    = 14.85564100
ECCENTRICITY   = .00220668
INCLINATION    = 82.4812
RA_OF_ASC_NODE = 105.7230
ARG_OF_PERICENTER = 320.3277
MEAN_ANOMALY   = 39.6323

EPHEMERIS_TYPE = 0
CLASSIFICATION_TYPE = U
NORAD_CAT_ID   = 16792
ELEMENT_SET_NO = 999
REV_AT_EPOCH   = 12239
BSTAR          = .52536148E-4
MEAN_MOTION_DOT = .48E-5
MEAN_MOTION_DDOT = 0

CCSDS_OMM_VERS = 2.0
CREATION_DATE  = 
ORIGINATOR     = 

OBJECT_NAME    = SL-14 R/B
OBJECT_ID      = 1986-055B
CENTER_NAME    = EARTH
REF_FRAME      = TEME
TIME_SYSTEM    = UTC
MEAN_ELEMENT_THEORY = SGP/SGP4

EPOCH          = 2026-02-10T21:01:45.420960
MEAN_MOTION    = 14.85614764
ECCENTRICITY   = .00202286
INCLINATION    = 82.5233
RA_OF_ASC_NODE = 151.8686
ARG_OF_PERICENTER = 63.1957
MEAN_ANOMALY   = 76.2409

EPHEMERIS_TYPE = 0
CLASSIFICATION_TYPE = U
NORAD_CAT_ID   = 16882
ELEMENT_SET_NO = 999
REV_AT_EPOCH   = 11538
BSTAR          = .66296106E-4
MEAN_MOTION_DOT = .6E-5
MEAN_MOTION_DDOT = 0

CCSDS_OMM_VERS = 2.0
CREATION_DATE  = 
ORIGINATOR     = 

OBJECT_NAME    = AJISAI (EGS)
OBJECT_ID      = 1986-061A
CENTER_NAME    = EARTH
REF_FRAME      = TEME
TIME_SYSTEM    = UTC
MEAN_ELEMENT_THEORY = SGP/SGP4

EPOCH          = 2026-02-10T23:33:06.257952
MEAN_MOTION    = 12.44515376
ECCENTRICITY   = .00112397
INCLINATION    = 50.0077
RA_OF_ASC_NODE = 175.4754
ARG_OF_PERICENTER = 218.1807
MEAN_ANOMALY   = 247.2033

EPHEMERIS_TYPE = 0
CLASSIFICATION_TYPE = U
NORAD_CAT_ID   = 16908
ELEMENT_SET_NO = 999
REV_AT_EPOCH   = 46467
BSTAR          = .47900228E-4
MEAN_MOTION_DOT = -.91E-6
MEAN_MOTION_DDOT = 0

CCSDS_OMM_VERS = 2.0
CREATION_DATE  = 
ORIGINATOR     = 

OBJECT_NAME    = COSMOS 1812
OBJECT_ID      = 1987-003A
CENTER_NAME    = EARTH
REF_FRAME      = TEME
TIME_SYSTEM    = UTC
MEAN_ELEMENT_THEORY = SGP/SGP4

EPOCH          = 2026-02-10T22:25:47.196192
MEAN_MOTION    = 15.96460526
ECCENTRICITY   = .000174
INCLINATION    = 82.4763
RA_OF_ASC_NODE = 226.0069
ARG_OF_PERICENTER = 311.6426
MEAN_ANOMALY   = 48.4701

EPHEMERIS_TYPE = 0
CLASSIFICATION_TYPE = U
NORAD_CAT_ID   = 17295
ELEMENT_SET_NO = 999
REV_AT_EPOCH   = 14018
BSTAR          = .71908517E-3
MEAN_MOTION_DOT = .299679E-2
MEAN_MOTION_DDOT = .34177898E-4

CCSDS_OMM_VERS = 2.0
CREATION_DATE  = 
ORIGINATOR     = 

OBJECT_NAME    = SL-14 R/B
OBJECT_ID      = 1987-024B
CENTER_NAME    = EARTH
REF_FRAME      = TEME
TIME_SYSTEM    = UTC
MEAN_ELEMENT_THEORY = SGP/SGP4

EPOCH          = 2026-02-10T15:20:07.021824
MEAN_MOTION    = 14.86106208
ECCENTRICITY   = .0018004
INCLINATION    = 82.5289
RA_OF_ASC_NODE = 118.1885
ARG_OF_PERICENTER = 355.2951
MEAN_ANOMALY   = 4.8093

EPHEMERIS_TYPE = 0
CLASSIFICATION_TYPE = U
NORAD_CAT_ID   = 17567
ELEMENT_SET_NO = 999
REV_AT_EPOCH   = 8411
BSTAR          = .53671242E-4
MEAN_MOTION_DOT = .496E-5
MEAN_MOTION_DDOT = 0

CCSDS_OMM_VERS = 2.0
CREATION_DATE  = 
ORIGINATOR     = 

OBJECT_NAME    = COSMOS 1833
OBJECT_ID      = 1987-027A
CENTER_NAME    = EARTH
REF_FRAME      = TEME
TIME_SYSTEM    = UTC
MEAN_ELEMENT_THEORY = SGP/SGP4

EPOCH          = 2026-02-10T23:02:46.328352
MEAN_MOTION    = 14.13056894
ECCENTRICITY   = .00249079
INCLINATION    = 70.9217
RA_OF_ASC_NODE = 22.1933
ARG_OF_PERICENTER = 250.4053
MEAN_ANOMALY   = 109.4379

EPHEMERIS_TYPE = 0
CLASSIFICATION_TYPE = U
NORAD_CAT_ID   = 17589
ELEMENT_SET_NO = 999
REV_AT_EPOCH   = 654
BSTAR          = .41298206E-4
MEAN_MOTION_DOT = .29E-6
MEAN_MOTION_DDOT = 0

CCSDS_OMM_VERS = 2.0
CREATION_DATE  = 
ORIGINATOR     = 

OBJECT_NAME    = SL-16 R/B
OBJECT_ID      = 1987-027B
CENTER_NAME    = EARTH
REF_FRAME      = TEME
TIME_SYSTEM    = UTC
MEAN_ELEMENT_THEORY = SGP/SGP4

EPOCH          = 2026-02-10T22:34:40.826784
MEAN_MOTION    = 14.17163050
ECCENTRICITY   = .00049636
INCLINATION    = 71.0049
RA_OF_ASC_NODE = 332.8604
ARG_OF_PERICENTER = 189.7273
MEAN_ANOMALY   = 170.3755

EPHEMERIS_TYPE = 0
CLASSIFICATION_TYPE = U
NORAD_CAT_ID   = 17590
ELEMENT_SET_NO = 999
REV_AT_EPOCH   = 1155
BSTAR          = -.68613625E-4
MEAN_MOTION_DOT = -.186E-5
MEAN_MOTION_DDOT = 0

CCSDS_OMM_VERS = 2.0
CREATION_DATE  = 
ORIGINATOR     = 

OBJECT_NAME    = SL-14 R/B
OBJECT_ID      = 1987-038B
CENTER_NAME    = EARTH
REF_FRAME      = TEME
TIME_SYSTEM    = UTC
MEAN_ELEMENT_THEORY = SGP/SGP4

EPOCH          = 2026-02-10T19:43:49.014912
MEAN_MOTION    = 14.85342949
ECCENTRICITY   = .00177053
INCLINATION    = 82.5040
RA_OF_ASC_NODE = 322.1123
ARG_OF_PERICENTER = 252.3872
MEAN_ANOMALY   = 107.5411

EPHEMERIS_TYPE = 0
CLASSIFICATION_TYPE = U
NORAD_CAT_ID   = 17912
ELEMENT_SET_NO = 999
REV_AT_EPOCH   = 7524
BSTAR          = .60486387E-4
MEAN_MOTION_DOT = .545E-5
MEAN_MOTION_DDOT = 0

CCSDS_OMM_VERS = 2.0
CREATION_DATE  = 
ORIGINATOR     = 

OBJECT_NAME    = COSMOS 1844
OBJECT_ID      = 1987-041A
CENTER_NAME    = EARTH
REF_FRAME      = TEME
TIME_SYSTEM    = UTC
MEAN_ELEMENT_THEORY = SGP/SGP4

EPOCH          = 2026-02-10T12:41:22.208064
MEAN_MOTION    = 14.14542294
ECCENTRICITY   = .00288909
INCLINATION    = 70.8980
RA_OF_ASC_NODE = 91.4684
ARG_OF_PERICENTER = 61.4283
MEAN_ANOMALY   = 298.9740

EPHEMERIS_TYPE = 0
CLASSIFICATION_TYPE = U
NORAD_CAT_ID   = 17973
ELEMENT_SET_NO = 999
REV_AT_EPOCH   = 99974
BSTAR          = .24581629E-3
MEAN_MOTION_DOT = .426E-5
MEAN_MOTION_DDOT = 0

CCSDS_OMM_VERS = 2.0
CREATION_DATE  = 
ORIGINATOR     = 

OBJECT_NAME    = SL-14 R/B
OBJECT_ID      = 1987-055B
CENTER_NAME    = EARTH
REF_FRAME      = TEME
TIME_SYSTEM    = UTC
MEAN_ELEMENT_THEORY = SGP/SGP4

EPOCH          = 2026-02-10T22:31:20.371008
MEAN_MOTION    = 14.85595839
ECCENTRICITY   = .0022287
INCLINATION    = 82.4999
RA_OF_ASC_NODE = 14.2392
ARG_OF_PERICENTER = 101.0786
MEAN_ANOMALY   = 259.2938

EPHEMERIS_TYPE = 0
CLASSIFICATION_TYPE = U
NORAD_CAT_ID   = 18153
ELEMENT_SET_NO = 999
REV_AT_EPOCH   = 6596
BSTAR          = .69891023E-4
MEAN_MOTION_DOT = .632E-5
MEAN_MOTION_DDOT = 0

CCSDS_OMM_VERS = 2.0
CREATION_DATE  = 
ORIGINATOR     = 

OBJECT_NAME    = COSMOS 1867
OBJECT_ID      = 1987-060A
CENTER_NAME    = EARTH
REF_FRAME      = TEME
TIME_SYSTEM    = UTC
MEAN_ELEMENT_THEORY = SGP/SGP4

EPOCH          = 2026-02-10T08:02:19.117536
MEAN_MOTION    = 14.31498574
ECCENTRICITY   = .00141196
INCLINATION    = 65.0113
RA_OF_ASC_NODE = 23.3084
ARG_OF_PERICENTER = 276.6645
MEAN_ANOMALY   = 83.2833

EPHEMERIS_TYPE = 0
CLASSIFICATION_TYPE = U
NORAD_CAT_ID   = 18187
ELEMENT_SET_NO = 999
REV_AT_EPOCH   = 1602
BSTAR          = .30035454E-4
MEAN_MOTION_DOT = -.2E-6
MEAN_MOTION_DDOT = 0

CCSDS_OMM_VERS = 2.0
CREATION_DATE  = 
ORIGINATOR     = 

OBJECT_NAME    = SL-14 R/B
OBJECT_ID      = 1988-001B
CENTER_NAME    = EARTH
REF_FRAME      = TEME
TIME_SYSTEM    = UTC
MEAN_ELEMENT_THEORY = SGP/SGP4

EPOCH          = 2026-02-10T22:21:54.676512
MEAN_MOTION    = 14.85495162
ECCENTRICITY   = .00173042
INCLINATION    = 82.5109
RA_OF_ASC_NODE = 220.5273
ARG_OF_PERICENTER = 331.2298
MEAN_ANOMALY   = 28.7962

EPHEMERIS_TYPE = 0
CLASSIFICATION_TYPE = U
NORAD_CAT_ID   = 18749
ELEMENT_SET_NO = 999
REV_AT_EPOCH   = 3805
BSTAR          = .61090021E-4
MEAN_MOTION_DOT = .552E-5
MEAN_MOTION_DDOT = 0

